[{"OBJECT_NAME":"ICEYE-X25","OBJECT_ID":"2023-084AH","EPOCH":"2026-03-09T21:45:30.911328","MEAN_MOTION":15.51745691,"ECCENTRICITY":0.00040532,"INCLINATION":97.576,"RA_OF_ASC_NODE":209.03,"ARG_OF_PERICENTER":281.7425,"MEAN_ANOMALY":78.3371,"EPHEMERIS_TYPE":0,"CLASSIFICATION_TYPE":"U","NORAD_CAT_ID":56963,"ELEMENT_SET_NO":999,"REV_AT_EPOCH":15253,"BSTAR":0.0009263887,"MEAN_MOTION_DOT":0.00055448,"MEAN_MOTION_DDOT":0},{"OBJECT_NAME":"ELECTRON KICK STAGE R\/B","OBJECT_ID":"2025-118A","EPOCH":"2026-03-09T14:01:25.074336","MEAN_MOTION":15.51625967,"ECCENTRICITY":0.0002977,"INCLINATION":58.9838,"RA_OF_ASC_NODE":168.7184,"ARG_OF_PERICENTER":348.9312,"MEAN_ANOMALY":11.1704,"EPHEMERIS_TYPE":0,"CLASSIFICATION_TYPE":"U","NORAD_CAT_ID":64230,"ELEMENT_SET_NO":999,"REV_AT_EPOCH":4302,"BSTAR":0.00090697,"MEAN_MOTION_DOT":0.00054473,"MEAN_MOTION_DDOT":0}]
